H1 CPF  1  DLR 2021 07 22 10  7032 technosat            
H2  1704205 6203    42829 2021 07 22 00 00 00 2021 07 29 00 00 00    60 1 1  0 0 0
H9
10 0 59417  21600.000000  0      -4841163.654      -3546825.306      -3580850.840
10 0 59417  21660.000000  0      -4701429.638      -3328400.783      -3957424.101
10 0 59417  21720.000000  0      -4540078.519      -3097381.614      -4317335.825
10 0 59417  21780.000000  0      -4357688.933      -2854926.433      -4659079.610
10 0 59417  21840.000000  0      -4154936.693      -2602234.982      -4981226.611
10 0 59417  21900.000000  0      -3932592.110      -2340542.195      -5282431.234
10 0 59417  21960.000000  0      -3691516.913      -2071112.194      -5561436.456
10 0 59417  22020.000000  0      -3432660.775      -1795232.216      -5817078.750
10 0 59417  22080.000000  0      -3157057.477      -1514206.521      -6048292.605
10 0 59417  22140.000000  0      -2865820.703      -1229350.312      -6254114.644
10 0 59417  22200.000000  0      -2560139.488       -941983.674      -6433687.321
10 0 59417  22260.000000  0      -2241273.330       -653425.589      -6586262.164
10 0 59417  22320.000000  0      -1910547.022       -364988.028      -6711202.569
10 0 59417  22380.000000  0      -1569345.250        -77970.169      -6807986.135
10 0 59417  22440.000000  0      -1219107.001        206347.229      -6876206.634
10 0 59417  22500.000000  0       -861319.692        486707.352      -6915575.658
10 0 59417  22560.000000  0       -497513.023        761882.764      -6925923.783
10 0 59417  22620.000000  0       -129252.668       1030680.639      -6907201.222
10 0 59417  22680.000000  0        241866.165       1291947.709      -6859478.118
10 0 59417  22740.000000  0        614225.376       1544575.079      -6782944.596
10 0 59417  22800.000000  0        986190.941       1787502.946      -6677910.258
10 0 59417  22860.000000  0       1356119.930       2019724.997      -6544803.039
10 0 59417  22920.000000  0       1722367.507       2240292.525      -6384167.782
10 0 59417  22980.000000  0       2083294.164       2448318.375      -6196664.432
10 0 59417  23040.000000  0       2437273.013       2642980.576      -5983065.600
10 0 59417  23100.000000  0       2782696.994       2823525.609      -5744253.710
10 0 59417  23160.000000  0       3117986.088       2989271.415      -5481217.828
10 0 59417  23220.000000  0       3441594.600       3139610.148      -5195050.062
10 0 59417  23280.000000  0       3752018.440       3274010.605      -4886941.422
10 0 59417  23340.000000  0       4047802.231       3392020.246      -4558177.206
10 0 59417  23400.000000  0       4327546.344       3493266.897      -4210132.020
10 0 59417  23460.000000  0       4589913.803       3577460.051      -3844264.281
10 0 59417  23520.000000  0       4833636.888       3644391.748      -3462110.302
10 0 59417  23580.000000  0       5057523.499       3693937.118      -3065278.041
10 0 59417  23640.000000  0       5260463.267       3726054.543      -2655440.483
10 0 59417  23700.000000  0       5441433.390       3740785.395      -2234328.630
10 0 59417  23760.000000  0       5599504.092       3738253.324      -1803724.138
10 0 59417  23820.000000  0       5733843.637       3718663.132      -1365451.673
10 0 59417  23880.000000  0       5843722.908       3682299.234       -921371.053
10 0 59417  23940.000000  0       5928519.545       3629523.743       -473369.186
10 0 59417  24000.000000  0       5987721.611       3560774.130        -23351.781
10 0 59417  24060.000000  0       6020930.698       3476560.500        426765.034
10 0 59417  24120.000000  0       6027864.504       3377462.484        875063.225
10 0 59417  24180.000000  0       6008358.762       3264125.768       1319631.379
10 0 59417  24240.000000  0       5962368.591       3137258.312       1758573.175
10 0 59417  24300.000000  0       5889969.308       2997626.292       2190015.814
10 0 59417  24360.000000  0       5791356.635       2846049.746       2612118.399
10 0 59417  24420.000000  0       5666846.247       2683397.910       3023080.155
10 0 59417  24480.000000  0       5516872.714       2510584.336       3421148.404
10 0 59417  24540.000000  0       5341987.820       2328561.837       3804626.282
10 0 59417  24600.000000  0       5142858.303       2138317.283       4171880.218
10 0 59417  24660.000000  0       4920262.962       1940866.246       4521346.913
10 0 59417  24720.000000  0       4675089.523       1737247.561       4851539.979
10 0 59417  24780.000000  0       4408330.895       1528517.880       5161056.468
10 0 59417  24840.000000  0       4121080.728       1315746.158       5448582.927
10 0 59417  24900.000000  0       3814528.528       1100008.122       5712900.919
10 0 59417  24960.000000  0       3489954.323        882380.763       5952892.016
10 0 59417  25020.000000  0       3148723.016        663936.937       6167542.278
10 0 59417  25080.000000  0       2792278.423        445740.125       6355946.316
10 0 59417  25140.000000  0       2422136.980        228839.279       6517310.971
10 0 59417  25200.000000  0       2039881.097         14263.769       6650958.475
10 0 59417  25260.000000  0       1647152.238       -196981.488       6756329.162
10 0 59417  25320.000000  0       1245643.680       -403920.744       6832983.711
10 0 59417  25380.000000  0        837092.992       -605611.962       6880604.733
10 0 59417  25440.000000  0        423274.460       -801151.059       6898997.867
10 0 59417  25500.000000  0          5991.303       -989675.942       6888092.481
10 0 59417  25560.000000  0       -412932.249      -1170370.318       6847941.791
10 0 59417  25620.000000  0       -831658.960      -1342467.234       6778722.510
10 0 59417  25680.000000  0      -1248346.679      -1505252.314       6680733.964
10 0 59417  25740.000000  0      -1661156.405      -1658066.690       6554396.729
10 0 59417  25800.000000  0      -2068260.353      -1800309.596       6400250.842
10 0 59417  25860.000000  0      -2467849.993      -1931440.681       6218953.614
10 0 59417  25920.000000  0      -2858144.134      -2050982.079       6011277.046
10 0 59417  25980.000000  0      -3237397.066      -2158520.178       5778104.698
10 0 59417  26040.000000  0      -3603906.532      -2253707.029       5520427.899
10 0 59417  26100.000000  0      -3956021.408      -2336261.409       5239341.580
10 0 59417  26160.000000  0      -4292149.296      -2405969.559       4936039.713
10 0 59417  26220.000000  0      -4610763.867      -2462685.562       4611810.242
10 0 59417  26280.000000  0      -4910411.904      -2506331.341       4268029.638
10 0 59417  26340.000000  0      -5189720.051      -2536896.319       3906157.088
10 0 59417  26400.000000  0      -5447401.247      -2554436.758       3527728.343
10 0 59417  26460.000000  0      -5682260.811      -2559074.745       3134349.212
10 0 59417  26520.000000  0      -5893202.145      -2550996.870       2727688.740
10 0 59417  26580.000000  0      -6079232.016      -2530452.618       2309472.081
10 0 59417  26640.000000  0      -6239465.443      -2497752.437       1881473.065
10 0 59417  26700.000000  0      -6373130.031      -2453265.436       1445506.425
10 0 59417  26760.000000  0      -6479569.628      -2397416.752       1003419.904
10 0 59417  26820.000000  0      -6558247.524      -2330684.685        557086.341
10 0 59417  26880.000000  0      -6608749.176      -2253597.596        108395.567
10 0 59417  26940.000000  0      -6630784.326      -2166730.514       -340753.822
10 0 59417  27000.000000  0      -6624188.439      -2070701.520       -788462.723
10 0 59417  27060.000000  0      -6588923.536      -1966167.958      -1232839.709
10 0 59417  27120.000000  0      -6525078.445      -1853822.478      -1672009.143
10 0 59417  27180.000000  0      -6432868.456      -1734388.921      -2104119.194
10 0 59417  27240.000000  0      -6312634.379      -1608618.088      -2527349.686
10 0 59417  27300.000000  0      -6164841.027      -1477283.417      -2939919.781
10 0 59417  27360.000000  0      -5990075.145      -1341176.585      -3340095.451
10 0 59417  27420.000000  0      -5789042.770      -1201103.069      -3726196.692
10 0 59417  27480.000000  0      -5562566.086      -1057877.688      -4096604.456
10 0 59417  27540.000000  0      -5311579.760       -912320.133      -4449767.287
10 0 59417  27600.000000  0      -5037126.794       -765250.535      -4784207.615
10 0 59417  27660.000000  0      -4740353.895       -617485.091      -5098527.693
10 0 59417  27720.000000  0      -4422506.430       -469831.804      -5391415.163
10 0 59417  27780.000000  0      -4084922.965       -323086.287      -5661648.207
10 0 59417  27840.000000  0      -3729029.461       -178027.687      -5908100.287
10 0 59417  27900.000000  0      -3356333.138        -35414.766      -6129744.468
10 0 59417  27960.000000  0      -2968416.066        104017.860      -6325657.323
10 0 59417  28020.000000  0      -2566928.491        239563.300      -6495022.462
10 0 59417  28080.000000  0      -2153581.849        370545.769      -6637133.672
10 0 59417  28140.000000  0      -1730141.555        496323.759      -6751397.556
10 0 59417  28200.000000  0      -1298419.661        616293.051      -6837335.784
10 0 59417  28260.000000  0       -860267.310        729889.523      -6894586.912
10 0 59417  28320.000000  0       -417567.038        836591.715      -6922907.742
10 0 59417  28380.000000  0         27774.992        935923.133      -6922174.287
10 0 59417  28440.000000  0        473836.855       1027454.286      -6892382.423
10 0 59417  28500.000000  0        918688.944       1110804.511      -6833648.185
10 0 59417  28560.000000  0       1360402.212       1185643.604      -6746207.459
10 0 59417  28620.000000  0       1797056.283       1251693.137      -6630415.155
10 0 59417  28680.000000  0       2226747.608       1308727.516      -6486744.108
10 0 59417  28740.000000  0       2647597.720       1356574.786      -6315783.426
99
